{"fetched_at":"2026-03-29T16:36:15Z","count":15609,"tles":[{"name":"STARLINK-31462","line1":"1 59466U 24068M   26087.84816620  .00019062  00000+0  69940-3 0  9996","line2":"2 59466  42.9991 286.2281 0001365 274.9863  85.0832 15.27627801111456","category":"Starlink"}]}