{
  "norad_id": 59466,
  "name": "STARLINK-31462",
  "history": [
    {
      "epoch": "2026-03-28T20:21:21.559680Z",
      "apogee_km": 483.84311624044676,
      "perigee_km": 481.96881652288994,
      "latitude_deg": -4.4904670837628085e-05,
      "longitude_deg": 154.62549344983697,
      "height_km": 482.60109212273284,
      "semi_major_axis_km": 6861.042966381668,
      "eccentricity": 0.00013659,
      "inclination_deg": 42.9991,
      "raan_deg": 286.2281,
      "arg_perigee_deg": 274.9863,
      "mean_anomaly_deg": 85.0832,
      "mean_motion_rev_day": 15.27627801
    }
  ]
}